CTC1_L_00449001-01
1 21993U 22042IF  26070.40836806  .00000000  00000+0  00000-0 0  9993
2 21993  85.0000   0.0000 0000000   0.0000   0.0000 12.41559304    14
CTC1_L_00449001-02
1 21994U 22784XM  26070.40836806  .00000000  00000+0  00000-0 0  9997
2 21994  85.0000   0.0000 0000000   0.0000  90.0000 12.41559304    14
CTC1_L_00449001-03
1 21995U 25312YS  26070.40836806  .00000000  00000+0  00000-0 0  9998
2 21995  85.0000   0.0000 0000000   0.0000 180.0000 12.41559304    15
CTC1_L_00449001-04
1 21996U 22187DW  26070.40836806  .00000000  00000+0  00000-0 0  9996
2 21996  85.0000   0.0000 0000000   0.0000 270.0000 12.41559304    16
CTC1_L_00449002-01
1 21997U 26465AF  26070.40836806  .00000000  00000+0  00000-0 0  9990
2 21997  85.0000  12.0000 0000000   0.0000  12.0000 12.41559304    14
CTC1_L_00449002-02
1 21998U 25171EP  26070.40836806  .00000000  00000+0  00000-0 0  9994
2 21998  85.0000  12.0000 0000000   0.0000 102.0000 12.41559304    15
CTC1_L_00449002-03
1 21999U 24819RS  26070.40836806  .00000000  00000+0  00000-0 0  9993
2 21999  85.0000  12.0000 0000000   0.0000 192.0000 12.41559304    15
CTC1_L_00449002-04
1 22000U 22630KD  26070.40836806  .00000000  00000+0  00000-0 0  9996
2 22000  85.0000  12.0000 0000000   0.0000 282.0000 12.41559304    19
CTC1_L_00449003-01
1 22001U 23441GI  26070.40836806  .00000000  00000+0  00000-0 0  9998
2 22001  85.0000  24.0000 0000000   0.0000  24.0000 12.41559304    17
CTC1_L_00449003-02
1 22002U 22762Q   26070.40836806  .00000000  00000+0  00000-0 0  9994
2 22002  85.0000  24.0000 0000000   0.0000 114.0000 12.41559304    18
CTC1_L_00449003-03
1 22003U 24812HL  26070.40836806  .00000000  00000+0  00000-0 0  9993
2 22003  85.0000  24.0000 0000000   0.0000 204.0000 12.41559304    19
CTC1_L_00449003-04
1 22004U 24641TS  26070.40836806  .00000000  00000+0  00000-0 0  9994
2 22004  85.0000  24.0000 0000000   0.0000 294.0000 12.41559304    19
CTC1_L_00449004-01
1 22005U 23066AH  26070.40836806  .00000000  00000+0  00000-0 0  9995
2 22005  85.0000  36.0000 0000000   0.0000  36.0000 12.41559304    17
CTC1_L_00449004-02
1 22006U 23888YU  26070.40836806  .00000000  00000+0  00000-0 0  9998
2 22006  85.0000  36.0000 0000000   0.0000 126.0000 12.41559304    18
CTC1_L_00449004-03
1 22007U 24269MI  26070.40836806  .00000000  00000+0  00000-0 0  9993
2 22007  85.0000  36.0000 0000000   0.0000 216.0000 12.41559304    19
CTC1_L_00449004-04
1 22008U 26390ZT  26070.40836806  .00000000  00000+0  00000-0 0  9991
2 22008  85.0000  36.0000 0000000   0.0000 306.0000 12.41559304    10
CTC1_L_00449005-01
1 22009U 22230EG  26070.40836806  .00000000  00000+0  00000-0 0  9991
2 22009  85.0000  48.0000 0000000   0.0000  48.0000 12.41559304    17
CTC1_L_00449005-02
1 22010U 26201IP  26070.40836806  .00000000  00000+0  00000-0 0  9995
2 22010  85.0000  48.0000 0000000   0.0000 138.0000 12.41559304    19
CTC1_L_00449005-03
1 22011U 26247GV  26070.40836806  .00000000  00000+0  00000-0 0  9996
2 22011  85.0000  48.0000 0000000   0.0000 228.0000 12.41559304    10
CTC1_L_00449005-04
1 22012U 23486EB  26070.40836806  .00000000  00000+0  00000-0 0  9999
2 22012  85.0000  48.0000 0000000   0.0000 318.0000 12.41559304    11
CTC1_L_00449006-01
1 22013U 22064LW  26070.40836806  .00000000  00000+0  00000-0 0  9991
2 22013  85.0000  60.0000 0000000   0.0000  60.0000 12.41559304    10
CTC1_L_00449006-02
1 22014U 25596BA  26070.40836806  .00000000  00000+0  00000-0 0  9995
2 22014  85.0000  60.0000 0000000   0.0000 150.0000 12.41559304    11
CTC1_L_00449006-03
1 22015U 25155GU  26070.40836806  .00000000  00000+0  00000-0 0  9997
2 22015  85.0000  60.0000 0000000   0.0000 240.0000 12.41559304    12
CTC1_L_00449006-04
1 22016U 26587EY  26070.40836806  .00000000  00000+0  00000-0 0  9998
2 22016  85.0000  60.0000 0000000   0.0000 330.0000 12.41559304    13
CTC1_L_00449007-01
1 22017U 23193EL  26070.40836806  .00000000  00000+0  00000-0 0  9999
2 22017  85.0000  72.0000 0000000   0.0000  72.0000 12.41559304    10
CTC1_L_00449007-02
1 22018U 25980O   26070.40836806  .00000000  00000+0  00000-0 0  9996
2 22018  85.0000  72.0000 0000000   0.0000 162.0000 12.41559304    11
CTC1_L_00449007-03
1 22019U 26487YF  26070.40836806  .00000000  00000+0  00000-0 0  9990
2 22019  85.0000  72.0000 0000000   0.0000 252.0000 12.41559304    12
CTC1_L_00449007-04
1 22020U 22961VQ  26070.40836806  .00000000  00000+0  00000-0 0  9995
2 22020  85.0000  72.0000 0000000   0.0000 342.0000 12.41559304    14
CTC1_L_00449008-01
1 22021U 25962JQ  26070.40836806  .00000000  00000+0  00000-0 0  9990
2 22021  85.0000  84.0000 0000000   0.0000  84.0000 12.41559304    11
CTC1_L_00449008-02
1 22022U 24393LP  26070.40836806  .00000000  00000+0  00000-0 0  9998
2 22022  85.0000  84.0000 0000000   0.0000 174.0000 12.41559304    12
CTC1_L_00449008-03
1 22023U 22651KP  26070.40836806  .00000000  00000+0  00000-0 0  9994
2 22023  85.0000  84.0000 0000000   0.0000 264.0000 12.41559304    13
CTC1_L_00449008-04
1 22024U 26673GT  26070.40836806  .00000000  00000+0  00000-0 0  9993
2 22024  85.0000  84.0000 0000000   0.0000 354.0000 12.41559304    14
CTC1_L_00449009-01
1 22025U 22503LT  26070.40836806  .00000000  00000+0  00000-0 0  9992
2 22025  85.0000  96.0000 0000000   0.0000  96.0000 12.41559304    11
CTC1_L_00449009-02
1 22026U 26415QO  26070.40836806  .00000000  00000+0  00000-0 0  9999
2 22026  85.0000  96.0000 0000000   0.0000 186.0000 12.41559304    12
CTC1_L_00449009-03
1 22027U 26846CD  26070.40836806  .00000000  00000+0  00000-0 0  9998
2 22027  85.0000  96.0000 0000000   0.0000 276.0000 12.41559304    13
CTC1_L_00449009-04
1 22028U 25516KN  26070.40836806  .00000000  00000+0  00000-0 0  9992
2 22028  85.0000  96.0000 0000000   0.0000   6.0000 12.41559304    15
CTC1_L_00449010-01
1 22029U 25179CU  26070.40836806  .00000000  00000+0  00000-0 0  9998
2 22029  85.0000 108.0000 0000000   0.0000 108.0000 12.41559304    13
CTC1_L_00449010-02
1 22030U 26134MF  26070.40836806  .00000000  00000+0  00000-0 0  9992
2 22030  85.0000 108.0000 0000000   0.0000 198.0000 12.41559304    14
CTC1_L_00449010-03
1 22031U 24913PD  26070.40836806  .00000000  00000+0  00000-0 0  9996
2 22031  85.0000 108.0000 0000000   0.0000 288.0000 12.41559304    15
CTC1_L_00449010-04
1 22032U 24601CQ  26070.40836806  .00000000  00000+0  00000-0 0  9991
2 22032  85.0000 108.0000 0000000   0.0000  18.0000 12.41559304    17
CTC1_L_00449011-01
1 22033U 24301KV  26070.40836806  .00000000  00000+0  00000-0 0  9999
2 22033  85.0000 120.0000 0000000   0.0000 120.0000 12.41559304    16
CTC1_L_00449011-02
1 22034U 23716EI  26070.40836806  .00000000  00000+0  00000-0 0  9999
2 22034  85.0000 120.0000 0000000   0.0000 210.0000 12.41559304    17
CTC1_L_00449011-03
1 22035U 24925DH  26070.40836806  .00000000  00000+0  00000-0 0  9993
2 22035  85.0000 120.0000 0000000   0.0000 300.0000 12.41559304    18
CTC1_L_00449011-04
1 22036U 25429OA  26070.40836806  .00000000  00000+0  00000-0 0  9994
2 22036  85.0000 120.0000 0000000   0.0000  30.0000 12.41559304    19
CTC1_L_00449012-01
1 22037U 26046IN  26070.40836806  .00000000  00000+0  00000-0 0  9991
2 22037  85.0000 132.0000 0000000   0.0000 132.0000 12.41559304    16
CTC1_L_00449012-02
1 22038U 25107NH  26070.40836806  .00000000  00000+0  00000-0 0  9999
2 22038  85.0000 132.0000 0000000   0.0000 222.0000 12.41559304    17
CTC1_L_00449012-03
1 22039U 23382IZ  26070.40836806  .00000000  00000+0  00000-0 0  9993
2 22039  85.0000 132.0000 0000000   0.0000 312.0000 12.41559304    18
CTC1_L_00449012-04
1 22040U 26850DR  26070.40836806  .00000000  00000+0  00000-0 0  9998
2 22040  85.0000 132.0000 0000000   0.0000  42.0000 12.41559304    10
CTC1_L_00449013-01
1 22041U 23092NY  26070.40836806  .00000000  00000+0  00000-0 0  9994
2 22041  85.0000 144.0000 0000000   0.0000 144.0000 12.41559304    17
CTC1_L_00449013-02
1 22042U 22697LX  26070.40836806  .00000000  00000+0  00000-0 0  9995
2 22042  85.0000 144.0000 0000000   0.0000 234.0000 12.41559304    18
CTC1_L_00449013-03
1 22043U 23581P   26070.40836806  .00000000  00000+0  00000-0 0  9999
2 22043  85.0000 144.0000 0000000   0.0000 324.0000 12.41559304    19
CTC1_L_00449013-04
1 22044U 22449UH  26070.40836806  .00000000  00000+0  00000-0 0  9992
2 22044  85.0000 144.0000 0000000   0.0000  54.0000 12.41559304    10
CTC1_L_00449014-01
1 22045U 22099HZ  26070.40836806  .00000000  00000+0  00000-0 0  9994
2 22045  85.0000 156.0000 0000000   0.0000 156.0000 12.41559304    17
CTC1_L_00449014-02
1 22046U 22875AF  26070.40836806  .00000000  00000+0  00000-0 0  9997
2 22046  85.0000 156.0000 0000000   0.0000 246.0000 12.41559304    18
CTC1_L_00449014-03
1 22047U 23593RW  26070.40836806  .00000000  00000+0  00000-0 0  9996
2 22047  85.0000 156.0000 0000000   0.0000 336.0000 12.41559304    19
CTC1_L_00449014-04
1 22048U 22187SE  26070.40836806  .00000000  00000+0  00000-0 0  9995
2 22048  85.0000 156.0000 0000000   0.0000  66.0000 12.41559304    10
CTC1_L_00449015-01
1 22049U 25988SY  26070.40836806  .00000000  00000+0  00000-0 0  9998
2 22049  85.0000 168.0000 0000000   0.0000 168.0000 12.41559304    17
CTC1_L_00449015-02
1 22050U 24287GT  26070.40836806  .00000000  00000+0  00000-0 0  9991
2 22050  85.0000 168.0000 0000000   0.0000 258.0000 12.41559304    19
CTC1_L_00449015-03
1 22051U 24577UF  26070.40836806  .00000000  00000+0  00000-0 0  9994
2 22051  85.0000 168.0000 0000000   0.0000 348.0000 12.41559304    10
CTC1_L_00449015-04
1 22052U 23803SQ  26070.40836806  .00000000  00000+0  00000-0 0  9996
2 22052  85.0000 168.0000 0000000   0.0000  78.0000 12.41559304    11
CTC1_L_00449016-01
1 22053U 22729RW  26070.40836806  .00000000  00000+0  00000-0 0  9993
2 22053  85.0000 180.0000 0000000   0.0000 180.0000 12.41559304    10
CTC1_L_00449016-02
1 22054U 23222YX  26070.40836806  .00000000  00000+0  00000-0 0  9993
2 22054  85.0000 180.0000 0000000   0.0000 270.0000 12.41559304    11
